NORAD_CAT_ID,OBJECT_NAME,OBJECT_TYPE,EPOCH,MEAN_MOTION,ECCENTRICITY,INCLINATION,RA_OF_ASC_NODE,ARG_OF_PERICENTER,MEAN_ANOMALY,BSTAR,MEAN_MOTION_DOT,MEAN_MOTION_DDOT,TLE_LINE0,TLE_LINE1,TLE_LINE2,SEMIMAJOR_AXIS,PERIOD,APOGEE,PERIGEE,DECAYED
53868.0,STARLINK-4789,PAYLOAD,2023-01-02 18:07:28,15.73120022,0.0005051,53.2173,95.6046,19.5334,340.5879,-0.00012628,-0.00018263,0.0,0 STARLINK-4789,1 53868U 22114BC  23002.75518868 -.00018263  00000-0 -12628-3 0  9999,2 53868  53.2173  95.6046 0005051  19.5334 340.5879 15.73120022 17219,6728.123000000001,91.538,353.38699999999994,346.59,0.0
53868.0,STARLINK-4789,PAYLOAD,2023-01-03 12:25:12,15.73189022,0.0004081,53.2168,91.8303,9.4085,350.7011,4.3044e-05,5.42e-05,0.0,0 STARLINK-4789,1 53868U 22114BC  23003.51751149  .00005420  00000-0  43044-4 0  9991,2 53868  53.2168  91.8303 0004081   9.4085 350.7011 15.73189022 17889,6727.926,91.534,352.537,347.046,0.0
53868.0,STARLINK-4789,PAYLOAD,2023-01-03 15:28:10,15.73189427,0.0004062999999999,53.2173,91.2024,7.981,352.1274,3.9323e-05,4.897e-05,0.0,0 STARLINK-4789,1 53868U 22114BC  23003.64456829  .00004897  00000-0  39323-4 0  9994,2 53868  53.2173  91.2024 0004063   7.9810 352.1274 15.73189427 17356,6727.925,91.534,352.524,347.057,0.0
53868.0,STARLINK-4789,PAYLOAD,2023-01-04 05:11:29,15.73207079,0.0004564,53.217,88.3741,10.8013,349.3104,3.204e-05,3.877e-05,0.0,0 STARLINK-4789,1 53868U 22114BC  23004.21631754  .00003877  00000-0  32040-4 0  9996,2 53868  53.2170  88.3741 0004564  10.8013 349.3104 15.73207079 17444,6727.875,91.533,352.811,346.6690000000001,0.0
53868.0,STARLINK-4789,PAYLOAD,2023-01-04 12:48:53,15.73216014,0.0004257,53.2168,86.8017,6.0223,354.0848,3.7033e-05,4.581e-05,0.0,0 STARLINK-4789,1 53868U 22114BC  23004.53395226  .00004581  00000-0  37033-4 0  9992,2 53868  53.2168  86.8017 0004257   6.0223 354.0848 15.73216014 18043,6727.85,91.532,352.579,346.85,0.0
53868.0,STARLINK-4789,PAYLOAD,2023-01-04 21:57:44,15.73250396,0.000433,53.2167,84.9158,2.5897,357.5145,0.00010036,0.00013519,0.0,0 STARLINK-4789,1 53868U 22114BC  23004.91510110  .00013519  00000-0  10036-3 0  9999,2 53868  53.2167  84.9158 0004330   2.5897 357.5145 15.73250396 17551,6727.751,91.53,352.53,346.70300000000015,0.0
53868.0,STARLINK-4789,PAYLOAD,2023-01-05 13:12:31,15.73255012,0.0004365,53.2167,81.7719,3.2154,356.8893,7.7076e-05,0.00010236,0.0,0 STARLINK-4789,1 53868U 22114BC  23005.55036183  .00010236  00000-0  77076-4 0  9994,2 53868  53.2167  81.7719 0004365   3.2154 356.8893 15.73255012 18206,6727.738,91.53,352.54,346.667,0.0
53868.0,STARLINK-4789,PAYLOAD,2023-01-05 16:15:29,15.73241793,0.0004684,53.2166,81.1438,5.4165,354.6905,3.9473e-05,4.93e-05,0.0,0 STARLINK-4789,1 53868U 22114BC  23005.67742010  .00004930  00000-0  39473-4 0  9993,2 53868  53.2166  81.1438 0004684   5.4165 354.6905 15.73241793 18220,6727.776,91.531,352.792,346.49,0.0
53868.0,STARLINK-4789,PAYLOAD,2023-01-06 09:01:47,15.73178652,0.0004819,53.2164,77.6852,356.0246,4.0735,-0.0001104,-0.00016087,0.0,0 STARLINK-4789,1 53868U 22114BC  23006.37624061 -.00016087  00000-0 -11040-3 0  9993,2 53868  53.2164  77.6852 0004819 356.0246   4.0735 15.73178652 17783,6727.956,91.534,353.0630000000001,346.579,0.0
53868.0,STARLINK-4789,PAYLOAD,2023-01-07 04:51:02,15.73186682,0.000494,53.2163,73.5991,356.2559,3.8423,-5.2265e-05,-7.956e-05,0.0,0 STARLINK-4789,1 53868U 22114BC  23007.20210712 -.00007956  00000-0 -52265-4 0  9990,2 53868  53.2163  73.5991 0004940 356.2559   3.8423 15.73186682 18464,6727.933000000001,91.534,353.122,346.475,0.0
53868.0,STARLINK-4789,PAYLOAD,2023-01-07 10:56:57,15.73199313,0.0004081,53.2165,72.3415,11.9083,348.2033,-2.7525e-06,-1.011e-05,0.0,0 STARLINK-4789,1 53868U 22114BC  23007.45621709 -.00001011  00000-0 -27525-5 0  9997,2 53868  53.2165  72.3415 0004081  11.9083 348.2033 15.73199313 17958,6727.897,91.533,352.5080000000001,347.016,0.0
53868.0,STARLINK-4789,PAYLOAD,2023-01-07 13:59:55,15.73187852,0.0004993,53.2164,71.7128,10.2229,349.8892,-1.7451e-05,-3.075e-05,0.0,0 STARLINK-4789,1 53868U 22114BC  23007.58327967 -.00003075  00000-0 -17451-4 0  9998,2 53868  53.2164  71.7128 0004993  10.2229 349.8892 15.73187852 17974,6727.93,91.534,353.154,346.436,0.0
53868.0,STARLINK-4789,PAYLOAD,2023-01-07 21:37:19,15.7319174,0.0004253,53.2163,70.1412,6.233,353.8742,7.4221e-06,4.17e-06,0.0,0 STARLINK-4789,1 53868U 22114BC  23007.90092013  .00000417  00000-0  74221-5 0  9999,2 53868  53.2163  70.1412 0004253   6.2330 353.8742 15.73191740 18576,6727.919,91.534,352.645,346.922,0.0
53868.0,STARLINK-4789,PAYLOAD,2023-01-08 03:43:14,15.73193857,0.0003995,53.215,68.8823,3.7193,356.3856,2.6659e-05,3.119e-05,0.0,0 STARLINK-4789,1 53868U 22114BC  23008.15503353  .00003119  00000-0  26659-4 0  9994,2 53868  53.2150  68.8823 0003995   3.7193 356.3856 15.73193857 18062,6727.913000000001,91.534,352.465,347.09,0.0
53868.0,STARLINK-4789,PAYLOAD,2023-01-08 12:52:07,15.73202149,0.0004541,53.2149,66.9979,7.0506,353.0578,5.4058e-05,6.972e-05,0.0,0 STARLINK-4789,1 53868U 22114BC  23008.53620271  .00006972  00000-0  54058-4 0  9999,2 53868  53.2149  66.9979 0004541   7.0506 353.0578 15.73202149 18671,6727.889,91.533,352.809,346.699,0.0
53868.0,STARLINK-4789,PAYLOAD,2023-01-09 04:06:55,15.73207568,0.0004454,53.2158,63.8546,3.3018,356.8031,-7.3318e-06,-1.655e-05,0.0,0 STARLINK-4789,1 53868U 22114BC  23009.17147782 -.00001655  00000-0 -73318-5 0  9997,2 53868  53.2158  63.8546 0004454   3.3018 356.8031 15.73207568 18223,6727.874,91.533,352.735,346.742,0.0
53868.0,STARLINK-4789,PAYLOAD,2023-01-09 13:15:48,15.73218002,0.0004239,53.2151,61.9656,4.3014,355.8042,2.4933000000000007e-05,2.879e-05,0.0,0 STARLINK-4789,1 53868U 22114BC  23009.55264041  .00002879  00000-0  24933-4 0  9992,2 53868  53.2151  61.9656 0004239   4.3014 355.8042 15.73218002 18287,6727.844,91.532,352.561,346.857,0.0
53868.0,STARLINK-4789,PAYLOAD,2023-01-10 09:05:03,15.73185047,0.0004281,53.214,57.8811,5.263999999999999,354.8424,-4.3993e-05,-6.794e-05,0.0,0 STARLINK-4789,1 53868U 22114BC  23010.37851342 -.00006794  00000-0 -43993-4 0  9999,2 53868  53.2140  57.8811 0004281   5.2640 354.8424 15.73185047 18414,6727.938,91.534,352.68300000000005,346.923,0.0
53868.0,STARLINK-4789,PAYLOAD,2023-01-10 12:08:01,15.73189684,0.0004053999999999,53.2139,57.2521,6.336,353.7711,-3.2014e-05,-5.115e-05,0.0,0 STARLINK-4789,1 53868U 22114BC  23010.50556881 -.00005115  00000-0 -32014-4 0  9992,2 53868  53.2139  57.2521 0004054   6.3360 353.7711 15.73189684 18983,6727.925,91.534,352.517,347.0619999999999,0.0
53868.0,STARLINK-4789,PAYLOAD,2023-01-11 06:25:45,15.7322686,0.0004116,53.2149,53.4778,11.9857,348.1261,3.0585e-05,3.676e-05,0.0,0 STARLINK-4789,1 53868U 22114BC  23011.26788408  .00003676  00000-0  30585-4 0  9997,2 53868  53.2149  53.4778 0004116  11.9857 348.1261 15.73226860 18557,6727.819,91.532,352.4530000000001,346.914,0.0
53868.0,STARLINK-4789,PAYLOAD,2023-01-11 12:31:40,15.7322555,0.0004106,53.2155,52.2215,9.7921,350.3179,2.406e-05,2.758e-05,0.0,0 STARLINK-4789,1 53868U 22114BC  23011.52199316  .00002758  00000-0  24060-4 0  9991,2 53868  53.2155  52.2215 0004106   9.7921 350.3179 15.73225550 19147,6727.821999999999,91.532,352.45,346.925,0.0
53868.0,STARLINK-4789,PAYLOAD,2023-01-12 02:15:01,15.7317749,0.0003951,53.2158,49.3909,357.8188,2.2814,-3.393e-05,-5.381e-05,0.0,0 STARLINK-4789,1 53868U 22114BC  23012.09377128 -.00005381  00000-0 -33930-4 0  9996,2 53868  53.2158  49.3909 0003951 357.8188   2.2814 15.73177490 18682,6727.959,91.534,352.483,347.166,0.0
53868.0,STARLINK-4789,PAYLOAD,2023-01-12 19:01:19,15.7317835,0.0003585,53.2156,45.9327,16.9343,343.1796,-6.8519e-06,-1.585e-05,0.0,0 STARLINK-4789,1 53868U 22114BC  23012.79258946 -.00001585  00000-0 -68519-5 0  9993,2 53868  53.2156  45.9327 0003585  16.9343 343.1796 15.73178350 18799,6727.956999999999,91.534,352.2340000000001,347.41,0.0
53868.0,STARLINK-4789,PAYLOAD,2023-01-13 05:41:40,15.73202786,0.0003668,53.2159,43.7336,10.0135,350.0958,7.8917e-06,4.84e-06,0.0,0 STARLINK-4789,1 53868U 22114BC  23013.23727174  .00000484  00000-0  78917-5 0  9995,2 53868  53.2159  43.7336 0003668  10.0135 350.0958 15.73202786 18860,6727.887,91.533,352.22,347.284,0.0
53868.0,STARLINK-4789,PAYLOAD,2023-01-13 11:47:35,15.73195547,0.0003691,53.2159,42.4764,17.0467,343.0677,-1.0154e-06,-7.67e-06,0.0,0 STARLINK-4789,1 53868U 22114BC  23013.49138861 -.00000767  00000-0 -10154-5 0  9997,2 53868  53.2159  42.4764 0003691  17.0467 343.0677 15.73195547 19454,6727.908,91.533,352.256,347.29,0.0
53868.0,STARLINK-4789,PAYLOAD,2023-01-14 07:36:51,15.73190825,0.0003156,53.2156,38.3882,27.1349,332.9835,2.6841e-05,3.145e-05,0.0,0 STARLINK-4789,1 53868U 22114BC  23014.31726328  .00003145  00000-0  26841-4 0  9990,2 53868  53.2156  38.3882 0003156  27.1349 332.9835 15.73190825 19034,6727.920999999999,91.534,351.91,347.663,0.0
53868.0,STARLINK-4789,PAYLOAD,2023-01-14 10:39:48,15.73208266,0.0002532,53.2154,37.759,31.1031,329.0139,4.5972e-05,5.837e-05,0.0,0 STARLINK-4789,1 53868U 22114BC  23014.44431077  .00005837  00000-0  45972-4 0  9994,2 53868  53.2154  37.7590 0002532  31.1031 329.0139 15.73208266 19056,6727.871999999999,91.533,351.44,348.033,0.0
53868.0,STARLINK-4789,PAYLOAD,2023-01-14 18:17:12,15.73198097,0.0002213,53.2152,36.1883,31.1611,328.954,1.1287e-05,9.63e-06,0.0,0 STARLINK-4789,1 53868U 22114BC  23014.76195422  .00000963  00000-0  11287-4 0  9997,2 53868  53.2152  36.1883 0002213  31.1611 328.9540 15.73198097 19102,6727.901,91.533,351.254,348.277,0.0
53868.0,STARLINK-4789,PAYLOAD,2023-01-15 11:03:29,15.73218525,0.0002236,53.2161,32.7308,38.7566,321.3614,4.1122e-05,5.158e-05,0.0,0 STARLINK-4789,1 53868U 22114BC  23015.46075497  .00005158  00000-0  41122-4 0  9996,2 53868  53.2161  32.7308 0002236  38.7566 321.3614 15.73218525 19213,6727.842,91.532,351.212,348.20300000000003,0.0
